start=new Date('2022-07-06T00:00:00.000Z').valueOf();
sats=[{"MEAN_MOTION":"15.64372735","MEAN_MOTION_DDOT":"0.0000000000000","CLASSIFICATION_TYPE":"U","REF_FRAME":"TEME","ARG_OF_PERICENTER":"69.7450","LAUNCH_DATE":"2022-05-14","SITE":"AFETR","APOAPSIS":"375.756","OBJECT_NAME":"STARLINK-3974","COUNTRY_CODE":"US","MEAN_ANOMALY":"246.9628","ECCENTRICITY":"0.00010530","OBJECT_ID":"2022-052AN","OBJECT_TYPE":"PAYLOAD","RCS_SIZE":"LARGE","PERIAPSIS":"374.334","EPHEMERIS_TYPE":"0","SEMIMAJOR_AXIS":"6753.180","MEAN_MOTION_DOT":"-0.01051598","BSTAR":"-0.01201400000000","EPOCH":"2022-07-05T14:00:01.000224","FILE":"3508171","NORAD_CAT_ID":"52634","MEAN_ELEMENT_THEORY":"SGP4","RA_OF_ASC_NODE":"183.6572","CENTER_NAME":"EARTH","TLE_LINE2":"2 52634  53.2173 183.6572 0001053  69.7450 246.9628 15.64372735  1309","DECAY_DATE":null,"PERIOD":"92.050","INCLINATION":"53.2173","ELEMENT_SET_NO":"999","REV_AT_EPOCH":"130","TIME_SYSTEM":"UTC","TLE_LINE1":"1 52634U 22052AN  22186.58334491 -.01051598  00000-0 -12014-1 0  9997","GP_ID":"207480303"},{"MEAN_ANOMALY":"3.4978","ECCENTRICITY":"0.00031940","OBJECT_ID":"2022-052AP","OBJECT_TYPE":"PAYLOAD","RCS_SIZE":"LARGE","EPHEMERIS_TYPE":"0","PERIAPSIS":"347.507","MEAN_MOTION":"15.73236660","CLASSIFICATION_TYPE":"U","MEAN_MOTION_DDOT":"0.0000000000000","REF_FRAME":"TEME","ARG_OF_PERICENTER":"18.6531","LAUNCH_DATE":"2022-05-14","OBJECT_NAME":"STARLINK-3978","APOAPSIS":"351.805","SITE":"AFETR","COUNTRY_CODE":"US","PERIOD":"91.531","TLE_LINE2":"2 52635  53.2144 183.4982 0003194  18.6531   3.4978 15.73236660  1302","DECAY_DATE":null,"INCLINATION":"53.2144","REV_AT_EPOCH":"130","ELEMENT_SET_NO":"999","TIME_SYSTEM":"UTC","TLE_LINE1":"1 52635U 22052AP  22186.58334491  .00018880  00000-0  13841-3 0  9993","GP_ID":"207479704","SEMIMAJOR_AXIS":"6727.791","EPOCH":"2022-07-05T14:00:01.000224","BSTAR":"0.00013841000000","MEAN_MOTION_DOT":"0.00018880","FILE":"3508171","NORAD_CAT_ID":"52635","RA_OF_ASC_NODE":"183.4982","CENTER_NAME":"EARTH","MEAN_ELEMENT_THEORY":"SGP4"},{"ECCENTRICITY":"0.00010760","OBJECT_ID":"2022-052AQ","MEAN_ANOMALY":"200.0407","RCS_SIZE":"LARGE","OBJECT_TYPE":"PAYLOAD","PERIAPSIS":"375.930","EPHEMERIS_TYPE":"0","MEAN_MOTION_DDOT":"0.0000000000000","CLASSIFICATION_TYPE":"U","MEAN_MOTION":"15.63812901","REF_FRAME":"TEME","ARG_OF_PERICENTER":"86.5358","LAUNCH_DATE":"2022-05-14","COUNTRY_CODE":"US","SITE":"AFETR","OBJECT_NAME":"STARLINK-3967","APOAPSIS":"377.384","DECAY_DATE":null,"TLE_LINE2":"2 52636  53.2175 182.4420 0001076  86.5358 200.0407 15.63812901  8565","PERIOD":"92.083","ELEMENT_SET_NO":"999","REV_AT_EPOCH":"856","INCLINATION":"53.2175","TLE_LINE1":"1 52636U 22052AQ  22186.83334491 -.01045662  00000-0 -12208-1 0  9997","TIME_SYSTEM":"UTC","GP_ID":"207454270","MEAN_MOTION_DOT":"-0.01045662","BSTAR":"-0.01220800000000","EPOCH":"2022-07-05T20:00:01.000224","SEMIMAJOR_AXIS":"6754.792","NORAD_CAT_ID":"52636","FILE":"3508149","CENTER_NAME":"EARTH","RA_OF_ASC_NODE":"182.4420","MEAN_ELEMENT_THEORY":"SGP4"},{"CENTER_NAME":"EARTH","RA_OF_ASC_NODE":"183.4957","MEAN_ELEMENT_THEORY":"SGP4","NORAD_CAT_ID":"52637","FILE":"3507871","BSTAR":"-0.00038428000000","EPOCH":"2022-07-05T14:00:01.000224","MEAN_MOTION_DOT":"-0.00054385","SEMIMAJOR_AXIS":"6727.694","GP_ID":"207448140","TIME_SYSTEM":"UTC","TLE_LINE1":"1 52637U 22052AR  22186.58334491 -.00054385  00000-0 -38428-3 0  9995","REV_AT_EPOCH":"852","ELEMENT_SET_NO":"999","INCLINATION":"53.2142","PERIOD":"91.529","TLE_LINE2":"2 52637  53.2142 183.4957 0003167  20.5951   2.1986 15.73270394  8520","DECAY_DATE":null,"COUNTRY_CODE":"US","OBJECT_NAME":"STARLINK-3961","APOAPSIS":"351.690","SITE":"AFETR","LAUNCH_DATE":"2022-05-14","ARG_OF_PERICENTER":"20.5951","REF_FRAME":"TEME","CLASSIFICATION_TYPE":"U","MEAN_MOTION_DDOT":"0.0000000000000","MEAN_MOTION":"15.73270394","EPHEMERIS_TYPE":"0","PERIAPSIS":"347.429","RCS_SIZE":"LARGE","OBJECT_TYPE":"PAYLOAD","OBJECT_ID":"2022-052AR","ECCENTRICITY":"0.00031670","MEAN_ANOMALY":"2.1986"},{"MEAN_ANOMALY":"198.6168","ECCENTRICITY":"0.00010710","OBJECT_ID":"2022-052AS","OBJECT_TYPE":"PAYLOAD","RCS_SIZE":"LARGE","EPHEMERIS_TYPE":"0","PERIAPSIS":"375.913","MEAN_MOTION":"15.63819911","CLASSIFICATION_TYPE":"U","MEAN_MOTION_DDOT":"0.0000000000000","REF_FRAME":"TEME","ARG_OF_PERICENTER":"88.6548","LAUNCH_DATE":"2022-05-14","APOAPSIS":"377.360","OBJECT_NAME":"STARLINK-3941","SITE":"AFETR","COUNTRY_CODE":"US","PERIOD":"92.082","TLE_LINE2":"2 52638  53.2176 182.4468 0001071  88.6548 198.6168 15.63819911  8563","DECAY_DATE":null,"INCLINATION":"53.2176","REV_AT_EPOCH":"856","ELEMENT_SET_NO":"999","TLE_LINE1":"1 52638U 22052AS  22186.83334491 -.01045691  00000-0 -12205-1 0  9998","TIME_SYSTEM":"UTC","GP_ID":"207454262","SEMIMAJOR_AXIS":"6754.772","BSTAR":"-0.01220500000000","EPOCH":"2022-07-05T20:00:01.000224","MEAN_MOTION_DOT":"-0.01045691","FILE":"3508149","NORAD_CAT_ID":"52638","RA_OF_ASC_NODE":"182.4468","CENTER_NAME":"EARTH","MEAN_ELEMENT_THEORY":"SGP4"},{"INCLINATION":"53.2143","REV_AT_EPOCH":"856","ELEMENT_SET_NO":"999","PERIOD":"91.534","TLE_LINE2":"2 52639  53.2143 182.2533 0002816  10.6441 350.6752 15.73189200  8565","DECAY_DATE":null,"GP_ID":"207454139","TIME_SYSTEM":"UTC","TLE_LINE1":"1 52639U 22052AT  22186.83334491  .00022096  00000-0  16150-3 0  9995","SEMIMAJOR_AXIS":"6727.926","EPOCH":"2022-07-05T20:00:01.000224","BSTAR":"0.00016150000000","MEAN_MOTION_DOT":"0.00022096","MEAN_ELEMENT_THEORY":"SGP4","RA_OF_ASC_NODE":"182.2533","CENTER_NAME":"EARTH","FILE":"3508150","NORAD_CAT_ID":"52639","OBJECT_TYPE":"PAYLOAD","RCS_SIZE":"LARGE","MEAN_ANOMALY":"350.6752","OBJECT_ID":"2022-052AT","ECCENTRICITY":"0.00028160","EPHEMERIS_TYPE":"0","PERIAPSIS":"347.896","ARG_OF_PERICENTER":"10.6441","REF_FRAME":"TEME","MEAN_MOTION":"15.73189200","CLASSIFICATION_TYPE":"U","MEAN_MOTION_DDOT":"0.0000000000000","APOAPSIS":"351.686","OBJECT_NAME":"STARLINK-3968","SITE":"AFETR","COUNTRY_CODE":"US","LAUNCH_DATE":"2022-05-14"},{"TLE_LINE2":"2 52640  53.2147 182.2607 0003063  15.0544 343.1685 15.73229358  8562","DECAY_DATE":null,"PERIOD":"91.531","ELEMENT_SET_NO":"999","REV_AT_EPOCH":"856","INCLINATION":"53.2147","TLE_LINE1":"1 52640U 22052AU  22186.83334491  .00043089  00000-0  30942-3 0  9997","TIME_SYSTEM":"UTC","GP_ID":"207454135","MEAN_MOTION_DOT":"0.00043089","BSTAR":"0.00030942000000","EPOCH":"2022-07-05T20:00:01.000224","SEMIMAJOR_AXIS":"6727.811","NORAD_CAT_ID":"52640","FILE":"3508150","RA_OF_ASC_NODE":"182.2607","MEAN_ELEMENT_THEORY":"SGP4","CENTER_NAME":"EARTH","OBJECT_ID":"2022-052AU","ECCENTRICITY":"0.00030630","MEAN_ANOMALY":"343.1685","RCS_SIZE":"LARGE","OBJECT_TYPE":"PAYLOAD","PERIAPSIS":"347.616","EPHEMERIS_TYPE":"0","MEAN_MOTION_DDOT":"0.0000000000000","CLASSIFICATION_TYPE":"U","MEAN_MOTION":"15.73229358","REF_FRAME":"TEME","ARG_OF_PERICENTER":"15.0544","LAUNCH_DATE":"2022-05-14","COUNTRY_CODE":"US","SITE":"AFETR","APOAPSIS":"351.737","OBJECT_NAME":"STARLINK-3977"},{"MEAN_MOTION_DOT":"-0.00087177","BSTAR":"-0.00062089000000","EPOCH":"2022-07-05T14:00:01.000224","SEMIMAJOR_AXIS":"6727.672","NORAD_CAT_ID":"52641","FILE":"3508171","MEAN_ELEMENT_THEORY":"SGP4","RA_OF_ASC_NODE":"183.4903","CENTER_NAME":"EARTH","TLE_LINE2":"2 52641  53.2142 183.4903 0002936  14.7049  10.5291 15.73278385  1301","DECAY_DATE":null,"PERIOD":"91.529","ELEMENT_SET_NO":"999","REV_AT_EPOCH":"130","INCLINATION":"53.2142","TIME_SYSTEM":"UTC","TLE_LINE1":"1 52641U 22052AV  22186.58334491 -.00087177  00000-0 -62089-3 0  9995","GP_ID":"207479952","MEAN_MOTION_DDOT":"0.0000000000000","CLASSIFICATION_TYPE":"U","MEAN_MOTION":"15.73278385","ARG_OF_PERICENTER":"14.7049","REF_FRAME":"TEME","LAUNCH_DATE":"2022-05-14","COUNTRY_CODE":"US","SITE":"AFETR","APOAPSIS":"351.512","OBJECT_NAME":"STARLINK-3991","ECCENTRICITY":"0.00029360","OBJECT_ID":"2022-052AV","MEAN_ANOMALY":"10.5291","RCS_SIZE":"LARGE","OBJECT_TYPE":"PAYLOAD","PERIAPSIS":"347.561","EPHEMERIS_TYPE":"0"},{"MEAN_MOTION":"15.73208898","MEAN_MOTION_DDOT":"0.0000000000000","CLASSIFICATION_TYPE":"U","REF_FRAME":"TEME","ARG_OF_PERICENTER":"13.9520","LAUNCH_DATE":"2022-05-14","SITE":"AFETR","OBJECT_NAME":"STARLINK-3971","APOAPSIS":"351.606","COUNTRY_CODE":"US","MEAN_ANOMALY":"346.0883","OBJECT_ID":"2022-052AW","ECCENTRICITY":"0.00027820","OBJECT_TYPE":"PAYLOAD","RCS_SIZE":"LARGE","PERIAPSIS":"347.863","EPHEMERIS_TYPE":"0","SEMIMAJOR_AXIS":"6727.870","MEAN_MOTION_DOT":"0.00068764","BSTAR":"0.00049012000000","EPOCH":"2022-07-05T20:00:01.000224","FILE":"3508151","NORAD_CAT_ID":"52642","RA_OF_ASC_NODE":"182.2571","CENTER_NAME":"EARTH","MEAN_ELEMENT_THEORY":"SGP4","TLE_LINE2":"2 52642  53.2146 182.2571 0002782  13.9520 346.0883 15.73208898  8569","DECAY_DATE":null,"PERIOD":"91.533","INCLINATION":"53.2146","ELEMENT_SET_NO":"999","REV_AT_EPOCH":"856","TIME_SYSTEM":"UTC","TLE_LINE1":"1 52642U 22052AW  22186.83334491  .00068764  00000-0  49012-3 0  9994","GP_ID":"207454148"},{"MEAN_ELEMENT_THEORY":"SGP4","RA_OF_ASC_NODE":"182.2490","CENTER_NAME":"EARTH","FILE":"3508151","NORAD_CAT_ID":"52643","SEMIMAJOR_AXIS":"6727.789","MEAN_MOTION_DOT":"0.00003288","EPOCH":"2022-07-05T20:00:01.000224","BSTAR":"0.00002780700000","GP_ID":"207454146","TLE_LINE1":"1 52643U 22052AX  22186.83334491  .00003288  00000-0  27807-4 0  9994","TIME_SYSTEM":"UTC","INCLINATION":"53.2143","ELEMENT_SET_NO":"999","REV_AT_EPOCH":"856","TLE_LINE2":"2 52643  53.2143 182.2490 0002528  22.5013 341.1512 15.73237384  8565","DECAY_DATE":null,"PERIOD":"91.531","SITE":"AFETR","OBJECT_NAME":"STARLINK-3963","APOAPSIS":"351.354","COUNTRY_CODE":"US","LAUNCH_DATE":"2022-05-14","REF_FRAME":"TEME","ARG_OF_PERICENTER":"22.5013","MEAN_MOTION":"15.73237384","MEAN_MOTION_DDOT":"0.0000000000000","CLASSIFICATION_TYPE":"U","PERIAPSIS":"347.953","EPHEMERIS_TYPE":"0","OBJECT_TYPE":"PAYLOAD","RCS_SIZE":"LARGE","MEAN_ANOMALY":"341.1512","OBJECT_ID":"2022-052AX","ECCENTRICITY":"0.00025280"}];
